[
  {
    "OBJECT_NAME": "FLOCK 4G-29",
    "OBJECT_ID": "2025-009AK",
    "EPOCH": "2026-06-11T18:22:49.593000",
    "MEAN_MOTION": 15.29298764,
    "ECCENTRICITY": 0.0001594,
    "INCLINATION": 97.4022,
    "RA_OF_ASC_NODE": 244.7598,
    "ARG_OF_PERICENTER": 340.7229,
    "MEAN_ANOMALY": 19.3951,
    "EPHEMERIS_TYPE": 0,
    "CLASSIFICATION_TYPE": "U",
    "NORAD_CAT_ID": 62642,
    "ELEMENT_SET_NO": 999,
    "REV_AT_EPOCH": 7807,
    "BSTAR": 0.00032258,
    "MEAN_MOTION_DOT": 0.00009095,
    "MEAN_MOTION_DDOT": 0
  }
]
