FLOCK 4G-29             
1 62642U 25009AK  26162.76585177  .00009095  00000+0  32258-3 0  9994
2 62642  97.4022 244.7598 0001594 340.7229  19.3951 15.29298764 78074
